0 COSMOS 489
1 06019U 72035A   13281.50331308  .00000031  00000-0  55032-4 0  2571
2 06019 074.0185 115.3948 0024883 335.4821 043.6102 13.75818632 79708
0 COSMOS 489
1 06019U 72035A   13282.82775457  .00000054  00000-0  78610-4 0  2587
2 06019 074.0185 113.1921 0024932 333.0379 123.4570 13.75818729 79884
0 COSMOS 489
1 06019U 72035A   13284.14519054  .00000040  00000-0  65079-4 0  2594
2 06019 074.0185 111.0009 0024965 330.6226 168.5877 13.75818989 80068
0 COSMOS 489
1 06019U 72035A   13285.51112939  .00000022  00000-0  46030-4 0  2605
2 06019 074.0185 108.7291 0024997 328.1210 093.9470 13.75819249 80255
0 COSMOS 489
1 06019U 72035A   13286.52810757 -.00000003  00000-0  19828-4 0  2616
2 06019 074.0186 107.0377 0025030 326.2500 090.9474 13.75819514 80394
0 COSMOS 489
1 06019U 72035A   13287.84728446  .00000003  00000-0  26346-4 0  2628
2 06019 074.0188 104.8436 0025068 323.8156 144.7211 13.75819679 80577
0 COSMOS 489
1 06019U 72035A   13289.08963036 -.00000003  00000-0  20548-4 0  2632
2 06019 074.0190 102.7773 0025102 321.4958 177.9846 13.75819945 80741
0 COSMOS 489
1 06019U 72035A   13290.52669734 -.00000004  00000-0  19386-4 0  2641
2 06019 074.0193 100.3871 0025141 318.8598 095.6436 13.75819940 80948
0 COSMOS 489
1 06019U 72035A   13291.69490959  .00000020  00000-0  43656-4 0  2656
2 06019 074.0196 098.4443 0025161 316.7638 121.6453 13.75819865 81101
0 COSMOS 489
1 06019U 72035A   13292.86354211  .00000025  00000-0  48810-4 0  2669
2 06019 074.0198 096.5008 0025210 314.5871 149.8067 13.75819797 81263
0 COSMOS 489
1 06019U 72035A   13294.03396302  .00000041  00000-0  65426-4 0  2678
2 06019 074.0198 094.5542 0025217 312.4542 186.7794 13.75819859 81427
0 COSMOS 489
1 06019U 72035A   13295.47254252  .00000030  00000-0  54432-4 0  2688
2 06019 074.0200 092.1619 0025257 309.8280 111.9168 13.75819992 81628
